<!doctype html>

<html>

<head>

<title>TLE for NORAD Catalog Number 44250</title>

</head>

<body>

<pre>
STARLINK-36             
1 44250U 19029R   19302.18475612  .00001385  00000-0  11451-3 0  9997
2 44250  52.9999 182.5215 0002169  99.6995 260.4238 15.05481640 23935

</pre>
	
</body>

</html>
